OSCAR 7 (AO-7)          
1 07530U 74089B   18296.17927183 -.00000036  00000-0  52824-4 0  9992
2 07530 101.7055 261.6580 0012452  87.1290 343.8537 12.53635048 10635
UOSAT 2 (UO-11)         
1 14781U 84021B   18296.33067076  .00000088  00000-0  16956-4 0  9991
2 14781  97.6374 326.9971 0009164  31.5653 328.6109 14.83038475863435
LUSAT (LO-19)           
1 20442U 90005G   18295.43982211 -.00000013  00000-0  11266-4 0  9996
2 20442  98.6197 233.1995 0012548 131.0909 229.1361 14.32907612502117
ITAMSAT (IO-26)         
1 22826U 93061D   18296.38889133  .00000005  00000-0  19713-4 0  9998
2 22826  98.8722 274.9432 0008385 328.7491  31.3191 14.30374673308082
RADIO ROSTO (RS-15)     
1 23439U 94085A   18296.40069095 -.00000011  00000-0  88013-3 0  9992
2 23439  64.8138 141.4825 0153029 158.6022 277.5667 11.27568826981185
JAS-2 (FO-29)           
1 24278U 96046B   18296.45002510 -.00000044  00000-0 -11026-4 0  9995
2 24278  98.5145 117.5278 0351003 137.9812 224.8828 13.53086598 95580
TECHSAT 1B (GO-32)      
1 25397U 98043D   18295.80382431 -.00000024  00000-0  84148-5 0  9991
2 25397  98.6602 234.1855 0001899  44.8249 315.3082 14.23653481 53888
ISS (ZARYA)             
1 25544U 98067A   18296.57406179  .00001324  00000-0  27494-4 0  9995
2 25544  51.6415  98.9257 0003719 328.5276  69.9168 15.53853533138481
PCSAT (NO-44)           
1 26931U 01043C   18295.88126009 -.00000044  00000-0  14924-4 0  9991
2 26931  67.0506 259.9125 0007017 259.1317 100.8995 14.30520801890815
SAUDISAT 1C (SO-50)     
1 27607U 02058C   18296.31332069 -.00000019  00000-0  18241-4 0  9991
2 27607  64.5558  58.3697 0076608 301.9641  57.4030 14.75489995851864
CUTE-1 (CO-55)          
1 27844U 03031E   18296.00783149  .00000058  00000-0  46026-4 0  9995
2 27844  98.6877 302.7824 0009910   8.2836 351.8503 14.22139671794364
CUBESAT XI-IV (CO-57)   
1 27848U 03031J   18295.86212294  .00000045  00000-0  40267-4 0  9997
2 27848  98.6960 303.0775 0010020  19.4042 340.7516 14.21740477794202
MOZHAYETS 4 (RS-22)     
1 27939U 03042A   18296.35123665  .00000134  00000-0  32611-4 0  9991
2 27939  98.0078  72.3184 0014227 101.7801 258.5014 14.66725235805608
CUBESAT XI-V (CO-58)    
1 28895U 05043F   18296.39598571  .00000127  00000-0  33186-4 0  9992
2 28895  97.9271  82.7978 0017358  28.6343 331.5809 14.63593662692630
CUTE-1.7+APD II (CO-65) 
1 32785U 08021C   18296.00290712  .00000204  00000-0  27711-4 0  9991
2 32785  97.5473 302.0809 0012512 341.2390  18.8365 14.88193180568189
DELFI-C3 (DO-64)        
1 32789U 08021G   18295.19747217  .00000755  00000-0  55329-4 0  9998
2 32789  97.4986 346.7169 0011443 217.8932 142.1491 15.06390418570905
SEEDS II (CO-66)        
1 32791U 08021J   18295.74767544  .00000218  00000-0  27589-4 0  9998
2 32791  97.5332 307.4650 0012308 319.0365  40.9929 14.90653598568517
YUBILEINY (RS-30)       
1 32953U 08025A   18296.33118212  .00000020  00000-0  75656-4 0  9999
2 32953  82.4988 292.9825 0018066 291.7169  68.1986 12.43086175472699
KKS-1 (KISEKI)          
1 33499U 09002H   18296.42836369  .00000096  00000-0  22190-4 0  9999
2 33499  98.3571 122.3917 0008082 241.4751 118.5643 14.75372803524098
SWISSCUBE               
1 35932U 09051B   18294.93671318  .00000141  00000-0  42953-4 0  9992
2 35932  98.5619  89.2735 0007791 173.0627 187.0679 14.56207099481842
BEESAT                  
1 35933U 09051C   18295.98575199  .00000104  00000-0  34436-4 0  9995
2 35933  98.5657  91.9773 0005796 180.2898 179.8297 14.56305718482146
ITUPSAT 1               
1 35935U 09051E   18295.70047623  .00000092  00000-0  32200-4 0  9996
2 35935  98.5769  91.9343 0008149 180.1933 179.9261 14.55477026481871
XIWANG-1 (HOPE-1)       
1 36122U 09072B   18295.16871693 -.00000051  00000-0 -22313-4 0  9991
2 36122 100.0746 303.8499 0007614 174.7259 185.3939 13.16346487425364
JUGNU                   
1 37839U 11058B   18296.19276793  .00000341  00000-0  39913-4 0  9992
2 37839  19.9627 341.0417 0018684 217.7397 185.2521 14.12632450363496
SRMSAT                  
1 37841U 11058D   18295.63440576  .00000301  00000-0  20147-4 0  9990
2 37841  19.9731  36.2573 0011972  90.0234  42.5743 14.10617154362892
M-CUBED & EXP-1 PRIME   
1 37855U 11061F   18296.28350097  .00000939  00000-0  55357-4 0  9997
2 37855 101.7197  64.3607 0175409  63.0389 298.8619 15.04825874380915
STRAND-1                
1 39090U 13009E   18296.12414313  .00000039  00000-0  28956-4 0  9995
2 39090  98.5083 140.7713 0008067 279.5719  80.4554 14.35054666296171
SOMP                    
1 39134U 13015E   18295.83037024  .00001455  00000-0  77543-4 0  9997
2 39134  64.8636  73.9041 0005660 306.4166  53.6439 15.19511771304298
BEESAT-3                
1 39135U 13015F   18296.19634132  .00001272  00000-0  73983-4 0  9992
2 39135  64.8678  87.7573 0009584 241.9835 118.0322 15.16951492304060
BEESAT-2                
1 39136U 13015G   18295.88186062  .00001090  00000-0  65742-4 0  9994
2 39136  64.8688  91.9059 0010726 241.0215 118.9836 15.16407244303958
ZACUBE-1 (TSHEPISOSAT)  
1 39417U 13066B   18296.01251057  .00000223  00000-0  34337-4 0  9998
2 39417  97.5788 317.7692 0060575  96.3370 264.4747 14.80997220265713
GOMX 1                  
1 39430U 13066Q   18296.40335202  .00000200  00000-0  45734-4 0  9999
2 39430  97.7124 264.1430 0150281 286.2783  72.1929 14.59145477261853
CUBEBUG-2 (LO-74)       
1 39440U 13066AA  18295.07282269  .00000201  00000-0  34885-4 0  9992
2 39440  97.6004 302.7649 0081315 142.6047 218.0861 14.75736653264635
FUNCUBE-1 (AO-73)       
1 39444U 13066AE  18295.06253744  .00000274  00000-0  40000-4 0  9997
2 39444  97.5791 318.5543 0059687  94.4081 266.3955 14.81793191264444
UWE-3                   
1 39446U 13066AG  18295.69048488  .00000206  00000-0  33875-4 0  9992
2 39446  97.5881 309.9667 0071493 119.3499 241.4879 14.78271467263953
SPROUT                  
1 39770U 14029E   18296.24963817  .00000555  00000-0  68046-4 0  9991
2 39770  97.8798  36.2746 0009599 143.2440 216.9482 14.87021360239394
UNISAT-6                
1 40012U 14033C   18295.71296756  .00000182  00000-0  34518-4 0  9992
2 40012  97.7878 167.1268 0059042 147.2652 213.2237 14.73878989233487
DUCHIFAT-1              
1 40021U 14033M   18295.82388940  .00000317  00000-0  38328-4 0  9994
2 40021  97.9141 214.7593 0014187 114.5674 245.7024 14.90419752235961
FUNCUBE-3 (EO-79)       
1 40025U 14033R   18295.71464998  .00000302  00000-0  38183-4 0  9997
2 40025  97.9011 210.8204 0013600 121.8964 238.3578 14.88796541235760
NUDT-PHONESAT           
1 40900U 15049B   18296.29137824  .00001640  00000-0  75172-4 0  9991
2 40900  97.4424 303.1112 0011932 306.1154 109.9037 15.21831027171392
ZDPS 2A                 
1 40901U 15049C   18296.37599659  .00000575  00000-0  32193-4 0  9991
2 40901  97.4609 300.7495 0012525 317.9575 152.4591 15.17314331171095
ZDPS 2B                 
1 40902U 15049D   18296.36739826  .00000526  00000-0  29914-4 0  9996
2 40902  97.4517 298.5624 0012769 315.1934 155.6450 15.17100566171071
XW-2A                   
1 40903U 15049E   18296.40361997  .00001516  00000-0  38829-4 0  9997
2 40903  97.3724 332.4797 0012418 290.8491 193.9018 15.40974409173548
KAITUO 1A               
1 40904U 15049F   18296.41136008  .00000617  00000-0  36356-4 0  9996
2 40904  97.4629 297.6373 0013944 319.8322 175.4451 15.15146578170910
2015-049G               
1 40905U 15049G   18296.45587567  .00000373  00000-0  24083-4 0  9994
2 40905  97.4643 295.5519 0014550 311.5741 180.1330 15.14087878170829
XW-2C                   
1 40906U 15049H   18296.45785646  .00000407  00000-0  25045-4 0  9990
2 40906  97.4638 297.6365 0013815 310.3189 206.8600 15.15362662170916
XW-2D                   
1 40907U 15049J   18296.39328015  .00000620  00000-0  36162-4 0  9996
2 40907  97.4614 297.2590 0013062 308.0891 188.7835 15.15527801170911
LILACSAT 2              
1 40908U 15049K   18296.35439385  .00000267  00000-0  18498-4 0  9995
2 40908  97.4726 296.4084 0015024 311.8748 154.9608 15.13614509170753
XW-2F                   
1 40910U 15049M   18296.30186949  .00000794  00000-0  43770-4 0  9994
2 40910  97.4609 298.7171 0013727 303.2072 184.3559 15.16803734170879
XW-2B                   
1 40911U 15049N   18296.41684008  .00000795  00000-0  45490-4 0  9998
2 40911  97.4644 297.8632 0013038 308.7327 194.3872 15.15468143170812
KAITUO 1B               
1 40912U 15049P   18296.30607639  .00000991  00000-0  50484-4 0  9999
2 40912  97.4522 301.8554 0013631 287.5331 260.0846 15.19056153171119
TIANWANG 1C (TW-1C)     
1 40926U 15051B   18296.41078884  .00007748  00000-0  13420-3 0  9998
2 40926  97.1717 338.2253 0010402 160.1955 256.9109 15.51129899173176
TIANWANG 1A (TW-1A)     
1 40928U 15051D   18296.35127406  .00001941  00000-0  51651-4 0  9996
2 40928  97.1751 327.7757 0010548 209.9459 205.7089 15.39368830172499
LAPAN-A2 (IO-86)        
1 40931U 15052B   18295.64973971  .00000699  00000-0  82337-5 0  9993
2 40931   6.0013 321.1842 0013769  11.1523 348.8938 14.76588606165870
E-ST@R-II               
1 41459U 16025D   18296.40044271  .00001698  00000-0  91164-4 0  9994
2 41459  98.1260   5.8310 0170920  78.9166 283.1214 15.04780636136702
AAUSAT 4                
1 41460U 16025E   18296.31709242  .00001809  00000-0  95481-4 0  9992
2 41460  98.1182   6.4626 0161985  74.0210 287.8808 15.06369024136775
NUSAT 1 (LO-87)         
1 41557U 16033B   18296.44188248  .00001207  00000-0  48178-4 0  9992
2 41557  97.4323  20.2527 0014444  61.4847 298.7844 15.27035744133734
BEESAT-4                
1 41619U 16040W   18296.37859807  .00001413  00000-0  63929-4 0  9997
2 41619  97.4014 357.6783 0012737 135.3483 224.8781 15.22477329117591
ALSAT 1N                
1 41789U 16059G   18296.22979133  .00000059  00000-0  20370-4 0  9992
2 41789  98.1054 357.1103 0029299  46.5762 313.7872 14.64188351110755
CAS-2T & KS-1Q          
1 41847U 16066G   18295.17379664  .00000036  00000-0  16592-4 0  9997
2 41847  98.7395 326.6691 0365355 227.0542 129.9463 14.37930213102571
NAYIF-1 (EO-88)         
1 42017U 17008BX  18296.14416453  .00001414  00000-0  59871-4 0  9998
2 42017  97.4351   0.3740 0004797 296.0617  64.0126 15.24822417 93565
LILACSAT-1              
1 42725U 98067ME  18296.35742920  .00042010  00000-0  25334-3 0  9995
2 42725  51.6379  61.1758 0004639 353.0313 100.6472 15.77216107 80691
MAX VALIER SAT          
1 42778U 17036P   18295.31342429  .00000916  00000-0  43666-4 0  9993
2 42778  97.3895 352.8321 0012103 352.1523   7.9521 15.21560816 73833
FOX-1B (AO-91)          
1 43017U 17073E   18296.22098749  .00000343  00000-0  32788-4 0  9992
2 43017  97.7114 222.0471 0258300 214.5729 143.8453 14.78247569 50020
FOX-1D (AO-92)          
1 43137U 18004AC  18296.42738869  .00000992  00000-0  45267-4 0  9992
2 43137  97.5199 359.3988 0009881  21.4266 338.7382 15.22974838 43226
